ONEWEB-0012             
1 44057U 19010A   26003.26377416  .00000013  00000+0 -42243-6 0  9993
2 44057  87.9032 261.6274 0001937  75.4770 284.6575 13.16593546329867
ONEWEB-0010             
1 44058U 19010B   26003.21311403  .00000078  00000+0  16942-3 0  9997
2 44058  87.9041 261.6293 0001320  60.5200 299.6062 13.16594171329905
ONEWEB-0008             
1 44059U 19010C   26003.23844377  .00000196  00000+0  47968-3 0  9994
2 44059  87.9043 261.6216 0001464  82.1018 278.0279 13.16594008330024
ONEWEB-0007             
1 44060U 19010D   26003.29463674 -.00000034  00000+0 -12363-3 0  9993
2 44060  87.9006 292.1346 0001823  65.3416 294.7904 13.15549944329691
ONEWEB-0006             
1 44061U 19010E   26003.29860063  .00000000  00000+0 -32863-4 0  9997
2 44061  87.9011 292.0829 0001555  68.7117 291.4180 13.15549107329747
ONEWEB-0011             
1 44062U 19010F   26003.26689816  .00000016  00000+0  95718-5 0  9995
2 44062  87.9014 292.0973 0001473  70.1993 289.9296 13.15547128329739
ONEWEB-0013             
1 45131U 20008A   26003.27458157  .00000344  00000+0  96152-3 0  9990
2 45131  87.8509  86.1394 0002608  96.6216 263.5207 13.09448355284483
ONEWEB-0017             
1 45132U 20008B   26003.22023441 -.00000207  00000+0 -62806-3 0  9999
2 45132  87.8790  69.1600 0001465  98.3529 261.7765 13.10376345286340
